[Satellite]
VERSION=1.1
NAME=GSAT0209 (PRN E09)
NICKNAME=GSAT0209 (PRN E09)
TLE1=1 41174U 15079A   18020.44552298  .00000067  00000-0  00000-0 0  9992
TLE2=2 41174  54.9203 185.7110 0002985 309.7441  50.1939  1.70473774 12614
